QIANFAN-147             
1 69106U 26108C   26158.71759612  .00000309  00000+0  14623-3 0  9999
2 69106  89.0118  23.2712 0015742 140.9443 219.2885 14.17034067  3003
QIANFAN-148             
1 69107U 26108D   26158.78194911  .00000313  00000+0  14752-3 0  9990
2 69107  89.0119  23.2626 0016260 145.5692 214.6554 14.17403232  3019
QIANFAN-149             
1 69108U 26108E   26158.70834921  .00000321  00000+0  15032-3 0  9996
2 69108  89.0121  23.2705 0015898 145.0485 215.1751 14.17857778  3004
QIANFAN-150             
1 69109U 26108F   26158.69975993  .00000313  00000+0  14510-3 0  9991
2 69109  89.0122  23.2694 0015930 146.7600 213.4593 14.18306199  3009
QIANFAN-151             
1 69110U 26108G   26158.76442822  .00000339  00000+0  15622-3 0  9994
2 69110  89.0121  23.2604 0016055 145.1354 215.0891 14.18801988  3015
QIANFAN-152             
1 69111U 26108H   26158.75930551  .00000330  00000+0  15005-3 0  9991
2 69111  89.0120  23.2594 0015264 145.0511 215.1684 14.19419236  3011
QIANFAN-153             
1 69112U 26108J   26158.75408941  .00000324  00000+0  14658-3 0  9991
2 69112  89.0118  23.2582 0016459 145.0137 215.2138 14.19642390  3011
QIANFAN-154             
1 69113U 26108K   26158.74705243  .00000331  00000+0  14820-3 0  9995
2 69113  89.0122  23.2580 0016131 142.9696 217.2611 14.20190484  3010
QIANFAN-155             
1 69114U 26108L   26158.75031470  .00000336  00000+0  15222-3 0  9993
2 69114  89.0122  23.2585 0016839 143.2826 216.9521 14.19535879  3015
QIANFAN-156             
1 69115U 26108M   26158.74190286  .00000335  00000+0  14774-3 0  9994
2 69115  89.0125  23.2578 0016474 144.5154 215.7136 14.20958316  3010
QIANFAN-157             
1 69116U 26108N   26157.30898275  .00000375  00000+0  15436-3 0  9999
2 69116  89.0123  23.4118 0016590 153.6669 206.5371 14.24908081  2816
QIANFAN-158             
1 69117U 26108P   26158.73502972  .00000348  00000+0  15132-3 0  9997
2 69117  89.0121  23.2560 0016412 145.8325 214.3926 14.21847810  3014
QIANFAN-159             
1 69118U 26108Q   26158.73077189  .00000352  00000+0  15161-3 0  9992
2 69118  89.0120  23.2552 0016120 145.6801 214.5435 14.22294153  3012
QIANFAN-160             
1 69119U 26108R   26158.72728061  .00000101  00000+0  38658-4 0  9993
2 69119  89.0121  23.2551 0015829 145.5035 214.7187 14.22717792  3011
QIANFAN-161             
1 69120U 26108S   26158.72352030  .00000353  00000+0  14953-3 0  9994
2 69120  89.0122  23.2544 0015847 146.2543 213.9661 14.23189483  3017
QIANFAN-162             
1 69121U 26108T   26158.72116155  .00000360  00000+0  15137-3 0  9994
2 69121  89.0121  23.2540 0015682 147.4322 212.7840 14.23624940  3016
SMILE                   
1 69123U 26109A   26144.65318427 -.00001976  00000+0 -42379-3 0  9994
2 69123  70.0007 229.2745 0009123 259.5159 100.4951 14.57062785   802
STARLINK-37726          
1 69124U 26110A   26158.75005786  .00041505  00000+0  76150-3 0  9998
2 69124  97.2856 354.8820 0001356  88.5041 338.0984 15.49162365  4148
STARLINK-37722          
1 69125U 26110B   26158.75005786 -.02544587  00000+0 -38302-1 0  9996
2 69125  97.2848 355.0289 0001734  74.3377 342.3270 15.58609018  4199
STARLINK-37715          
1 69126U 26110C   26158.75005786 -.02614454  00000+0 -27002-1 0  9993
2 69126  97.2850 355.0821 0001897  90.5324  92.5207 15.68236884  4144
STARLINK-37706          
1 69127U 26110D   26158.75005786 -.02628132  00000+0 -26761-1 0  9993
2 69127  97.2849 355.0855 0001902  87.6169 102.4194 15.68600767  4142
STARLINK-37723          
1 69128U 26110E   26158.75005786 -.02636681  00000+0 -26421-1 0  9995
2 69128  97.2850 355.0891 0001714  86.1776 111.6043 15.69003113  4142
STARLINK-37720          
1 69129U 26110F   26158.75005786  .00019085  00000+0  35201-3 0  9993
2 69129  97.2858 354.9013 0001829  91.5446  24.0132 15.49164444  4145
STARLINK-37533          
1 69130U 26110G   26156.86930582 -.00053675  00000+0 -28200-3 0  9992
2 69130  97.2839 353.1262 0001606  86.5092 273.6360 15.80753113  3851
STARLINK-37530          
1 69131U 26110H   26156.93185300  .00052184  00000+0  27125-3 0  9998
2 69131  97.2840 353.1944 0000830  62.1150 298.0203 15.80840143  3862
STARLINK-37660          
1 69132U 26110J   26158.75005786 -.01919881  00000+0 -25431-1 0  9995
2 69132  97.2848 355.0526 0001383  74.0978  31.2623 15.61495605  4145
STARLINK-37633          
1 69133U 26110K   26158.75005786 -.02502891  00000+0 -31745-1 0  9991
2 69133  97.2851 355.0607 0001783  77.7916  47.5971 15.62969798  4142
STARLINK-37361          
1 69134U 26110L   26158.75005786 -.02618242  00000+0 -23619-1 0  9991
2 69134  97.2848 355.1102 0001678  93.6825 151.0406 15.71484468  4149
STARLINK-37372          
1 69135U 26110M   26158.75005786 -.02697758  00000+0 -35455-1 0  9992
2 69135  97.2851 355.0764 0001845  83.4544  82.3327 15.62369020  4142
