OBJECT_NAME,OBJECT_ID,EPOCH,MEAN_MOTION,ECCENTRICITY,INCLINATION,RA_OF_ASC_NODE,ARG_OF_PERICENTER,MEAN_ANOMALY,EPHEMERIS_TYPE,CLASSIFICATION_TYPE,NORAD_CAT_ID,ELEMENT_SET_NO,REV_AT_EPOCH,BSTAR,MEAN_MOTION_DOT,MEAN_MOTION_DDOT
QIANFAN-147,2026-108C,2026-06-07T17:13:20.304768,14.17034067,.0015742,89.0118,23.2712,140.9443,219.2885,0,U,69106,999,300,.14623E-3,.309E-5,0
QIANFAN-148,2026-108D,2026-06-07T18:46:00.403104,14.17403232,.001626,89.0119,23.2626,145.5692,214.6554,0,U,69107,999,301,.14752E-3,.313E-5,0
QIANFAN-149,2026-108E,2026-06-07T17:00:01.371744,14.17857778,.0015898,89.0121,23.2705,145.0485,215.1751,0,U,69108,999,300,.15032E-3,.321E-5,0
QIANFAN-150,2026-108F,2026-06-07T16:47:39.257952,14.18306199,.001593,89.0122,23.2694,146.7600,213.4593,0,U,69109,999,300,.1451E-3,.313E-5,0
QIANFAN-151,2026-108G,2026-06-07T18:20:46.598208,14.18801988,.0016055,89.0121,23.2604,145.1354,215.0891,0,U,69110,999,301,.15622E-3,.339E-5,0
QIANFAN-152,2026-108H,2026-06-07T18:13:23.996064,14.19419236,.0015264,89.0120,23.2594,145.0511,215.1684,0,U,69111,999,301,.15005E-3,.33E-5,0
QIANFAN-153,2026-108J,2026-06-07T18:05:53.325024,14.19642390,.0016459,89.0118,23.2582,145.0137,215.2138,0,U,69112,999,301,.14658E-3,.324E-5,0
QIANFAN-154,2026-108K,2026-06-07T17:55:45.329952,14.20190484,.0016131,89.0122,23.2580,142.9696,217.2611,0,U,69113,999,301,.1482E-3,.331E-5,0
QIANFAN-155,2026-108L,2026-06-07T18:00:27.190080,14.19535879,.0016839,89.0122,23.2585,143.2826,216.9521,0,U,69114,999,301,.15222E-3,.336E-5,0
QIANFAN-156,2026-108M,2026-06-07T17:48:20.407104,14.20958316,.0016474,89.0125,23.2578,144.5154,215.7136,0,U,69115,999,301,.14774E-3,.335E-5,0
QIANFAN-157,2026-108N,2026-06-06T07:24:56.109600,14.24908081,.00165908,89.0123,23.4118,153.6669,206.5371,0,U,69116,999,281,.15435736E-3,.375E-5,0
QIANFAN-158,2026-108P,2026-06-07T17:38:26.567808,14.21847810,.0016412,89.0121,23.2560,145.8325,214.3926,0,U,69117,999,301,.15132E-3,.348E-5,0
QIANFAN-159,2026-108Q,2026-06-07T17:32:18.691296,14.22294153,.001612,89.0120,23.2552,145.6801,214.5435,0,U,69118,999,301,.15161E-3,.352E-5,0
QIANFAN-160,2026-108R,2026-06-07T17:27:17.044704,14.22717792,.0015829,89.0121,23.2551,145.5035,214.7187,0,U,69119,999,301,.38658E-4,.101E-5,0
QIANFAN-161,2026-108S,2026-06-07T17:21:52.153920,14.23189483,.0015847,89.0122,23.2544,146.2543,213.9661,0,U,69120,999,301,.14953E-3,.353E-5,0
QIANFAN-162,2026-108T,2026-06-07T17:18:28.357920,14.23624940,.0015682,89.0121,23.2540,147.4322,212.7840,0,U,69121,999,301,.15137E-3,.36E-5,0
SMILE,2026-109A,2026-05-24T15:40:35.120928,14.57062785,.00091232,70.0007,229.2745,259.5159,100.4951,0,U,69123,999,80,-.42378883E-3,-.1976E-4,0
STARLINK-37726,2026-110A,2026-06-07T18:00:04.999104,15.49162365,.0001356,97.2856,354.8820,88.5041,338.0984,0,U,69124,999,414,.7615E-3,.41505E-3,0
STARLINK-37722,2026-110B,2026-06-07T18:00:04.999104,15.58609018,.0001734,97.2848,355.0289,74.3377,342.3270,0,U,69125,999,419,-.38302E-1,-.2544587E-1,0
STARLINK-37715,2026-110C,2026-06-07T18:00:04.999104,15.68236884,.0001897,97.2850,355.0821,90.5324,92.5207,0,U,69126,999,414,-.27002E-1,-.2614454E-1,0
STARLINK-37706,2026-110D,2026-06-07T18:00:04.999104,15.68600767,.0001902,97.2849,355.0855,87.6169,102.4194,0,U,69127,999,414,-.26761E-1,-.2628132E-1,0
STARLINK-37723,2026-110E,2026-06-07T18:00:04.999104,15.69003113,.0001714,97.2850,355.0891,86.1776,111.6043,0,U,69128,999,414,-.26421E-1,-.2636681E-1,0
STARLINK-37720,2026-110F,2026-06-07T18:00:04.999104,15.49164444,.0001829,97.2858,354.9013,91.5446,24.0132,0,U,69129,999,414,.35201E-3,.19085E-3,0
STARLINK-37533,2026-110G,2026-06-05T20:51:48.022848,15.80753113,.00016063,97.2839,353.1262,86.5092,273.6360,0,U,69130,999,385,-.28200148E-3,-.53675E-3,0
STARLINK-37530,2026-110H,2026-06-05T22:21:52.099200,15.80840143,.000083,97.2840,353.1944,62.1150,298.0203,0,U,69131,999,386,.27125343E-3,.52184E-3,0
STARLINK-37660,2026-110J,2026-06-07T18:00:04.999104,15.61495605,.0001383,97.2848,355.0526,74.0978,31.2623,0,U,69132,999,414,-.25431E-1,-.1919881E-1,0
STARLINK-37633,2026-110K,2026-06-07T18:00:04.999104,15.62969798,.0001783,97.2851,355.0607,77.7916,47.5971,0,U,69133,999,414,-.31745E-1,-.2502891E-1,0
STARLINK-37361,2026-110L,2026-06-07T18:00:04.999104,15.71484468,.0001678,97.2848,355.1102,93.6825,151.0406,0,U,69134,999,414,-.23619E-1,-.2618242E-1,0
STARLINK-37372,2026-110M,2026-06-07T18:00:04.999104,15.62369020,.0001845,97.2851,355.0764,83.4544,82.3327,0,U,69135,999,414,-.35455E-1,-.2697758E-1,0
